{
  "type": "FeatureCollection",
  "features": [
    {
      "type": "Feature",
      "properties": {
        "norad_id": 38833,
        "name": "GPS BIIF-3  (PRN 24)",
        "group": "gps-ops",
        "lat": -44.210577813684054,
        "lon": 105.48841125594234,
        "alt_km": 20442.705287685938,
        "timestamp": "2025-12-06T18:50:10.427080+00:00",
        "meta_object_name": "GPS BIIF-3  (PRN 24)",
        "meta_object_id": "2012-053A",
        "meta_epoch": "2025-12-05T20:54:28.108224",
        "meta_mean_motion": 2.00564871,
        "meta_eccentricity": 0.01756137,
        "meta_inclination": 53.5564,
        "meta_ra_of_asc_node": 151.5199,
        "meta_arg_of_pericenter": 63.8922,
        "meta_mean_anomaly": 297.9105,
        "meta_ephemeris_type": 0,
        "meta_classification_type": "U",
        "meta_norad_cat_id": 38833,
        "meta_element_set_no": 999,
        "meta_rev_at_epoch": 9556,
        "meta_bstar": 0,
        "meta_mean_motion_dot": 6.1e-07,
        "meta_mean_motion_ddot": 0,
        "tle_line1": "1 38833U 12053A   25339.87115866  .00000061  00000+0  00000+0 0  9995",
        "tle_line2": "2 38833  53.5564 151.5199 0175613  63.8922 297.9105  2.00564871 95560"
      },
      "geometry": {
        "type": "Point",
        "coordinates": [
          105.48841125594234,
          -44.210577813684054
        ]
      }
    },
    {
      "type": "Feature",
      "properties": {
        "norad_id": 39166,
        "name": "GPS BIIF-4  (PRN 27)",
        "group": "gps-ops",
        "lat": 30.812987783531504,
        "lon": -58.206426292761634,
        "alt_km": 19819.204873989405,
        "timestamp": "2025-12-06T18:50:10.427092+00:00",
        "meta_object_name": "GPS BIIF-4  (PRN 27)",
        "meta_object_id": "2013-023A",
        "meta_epoch": "2025-12-02T17:50:49.750368",
        "meta_mean_motion": 2.00565046,
        "meta_eccentricity": 0.0137297,
        "meta_inclination": 54.6608,
        "meta_ra_of_asc_node": 276.9746,
        "meta_arg_of_pericenter": 48.5033,
        "meta_mean_anomaly": 312.6627,
        "meta_ephemeris_type": 0,
        "meta_classification_type": "U",
        "meta_norad_cat_id": 39166,
        "meta_element_set_no": 999,
        "meta_rev_at_epoch": 9194,
        "meta_bstar": 0,
        "meta_mean_motion_dot": -3.8e-07,
        "meta_mean_motion_ddot": 0,
        "tle_line1": "1 39166U 13023A   25336.74363137 -.00000038  00000+0  00000+0 0  9997",
        "tle_line2": "2 39166  54.6608 276.9746 0137297  48.5033 312.6627  2.00565046 91947"
      },
      "geometry": {
        "type": "Point",
        "coordinates": [
          -58.206426292761634,
          30.812987783531504
        ]
      }
    },
    {
      "type": "Feature",
      "properties": {
        "norad_id": 39533,
        "name": "GPS BIIF-5  (PRN 30)",
        "group": "gps-ops",
        "lat": 32.23333904765376,
        "lon": -175.13573128665442,
        "alt_km": 20386.381078521303,
        "timestamp": "2025-12-06T18:50:10.427103+00:00",
        "meta_object_name": "GPS BIIF-5  (PRN 30)",
        "meta_object_id": "2014-008A",
        "meta_epoch": "2025-12-05T17:30:27.207648",
        "meta_mean_motion": 2.00573953,
        "meta_eccentricity": 0.00790348,
        "meta_inclination": 53.63,
        "meta_ra_of_asc_node": 157.2106,
        "meta_arg_of_pericenter": 226.4047,
        "meta_mean_anomaly": 132.9556,
        "meta_ephemeris_type": 0,
        "meta_classification_type": "U",
        "meta_norad_cat_id": 39533,
        "meta_element_set_no": 999,
        "meta_rev_at_epoch": 8580,
        "meta_bstar": 0,
        "meta_mean_motion_dot": 6.8e-07,
        "meta_mean_motion_ddot": 0,
        "tle_line1": "1 39533U 14008A   25339.72948157  .00000068  00000+0  00000+0 0  9993",
        "tle_line2": "2 39533  53.6300 157.2106 0079034 226.4047 132.9556  2.00573953 85808"
      },
      "geometry": {
        "type": "Point",
        "coordinates": [
          -175.13573128665442,
          32.23333904765376
        ]
      }
    },
    {
      "type": "Feature",
      "properties": {
        "norad_id": 39741,
        "name": "GPS BIIF-6  (PRN 06)",
        "group": "gps-ops",
        "lat": -14.324019754608983,
        "lon": 168.70783273853561,
        "alt_km": 20237.49605534737,
        "timestamp": "2025-12-06T18:50:10.427115+00:00",
        "meta_object_name": "GPS BIIF-6  (PRN 06)",
        "meta_object_id": "2014-026A",
        "meta_epoch": "2025-12-06T00:17:34.807488",
        "meta_mean_motion": 2.00561679,
        "meta_eccentricity": 0.00389955,
        "meta_inclination": 56.5861,
        "meta_ra_of_asc_node": 339.0382,
        "meta_arg_of_pericenter": 318.3017,
        "meta_mean_anomaly": 41.4163,
        "meta_ephemeris_type": 0,
        "meta_classification_type": "U",
        "meta_norad_cat_id": 39741,
        "meta_element_set_no": 999,
        "meta_rev_at_epoch": 8466,
        "meta_bstar": 0,
        "meta_mean_motion_dot": -7.7e-07,
        "meta_mean_motion_ddot": 0,
        "tle_line1": "1 39741U 14026A   25340.01220842 -.00000077  00000+0  00000+0 0  9993",
        "tle_line2": "2 39741  56.5861 339.0382 0038995 318.3017  41.4163  2.00561679 84661"
      },
      "geometry": {
        "type": "Point",
        "coordinates": [
          168.70783273853561,
          -14.324019754608983
        ]
      }
    },
    {
      "type": "Feature",
      "properties": {
        "norad_id": 40105,
        "name": "GPS BIIF-7  (PRN 09)",
        "group": "gps-ops",
        "lat": 35.60380571515245,
        "lon": -113.66880233630803,
        "alt_km": 20092.806384689695,
        "timestamp": "2025-12-06T18:50:10.427128+00:00",
        "meta_object_name": "GPS BIIF-7  (PRN 09)",
        "meta_object_id": "2014-045A",
        "meta_epoch": "2025-12-05T14:26:16.975968",
        "meta_mean_motion": 2.00571979,
        "meta_eccentricity": 0.00328896,
        "meta_inclination": 55.2248,
        "meta_ra_of_asc_node": 96.1837,
        "meta_arg_of_pericenter": 119.6741,
        "meta_mean_anomaly": 240.6258,
        "meta_ephemeris_type": 0,
        "meta_classification_type": "U",
        "meta_norad_cat_id": 40105,
        "meta_element_set_no": 999,
        "meta_rev_at_epoch": 8219,
        "meta_bstar": 0,
        "meta_mean_motion_dot": -1.2e-07,
        "meta_mean_motion_ddot": 0,
        "tle_line1": "1 40105U 14045A   25339.60158537 -.00000012  00000+0  00000+0 0  9993",
        "tle_line2": "2 40105  55.2248  96.1837 0032889 119.6741 240.6258  2.00571979 82198"
      },
      "geometry": {
        "type": "Point",
        "coordinates": [
          -113.66880233630803,
          35.60380571515245
        ]
      }
    },
    {
      "type": "Feature",
      "properties": {
        "norad_id": 40294,
        "name": "GPS BIIF-8  (PRN 03)",
        "group": "gps-ops",
        "lat": -35.412859334473225,
        "lon": -113.94726726902192,
        "alt_km": 20332.319877614173,
        "timestamp": "2025-12-06T18:50:10.427153+00:00",
        "meta_object_name": "GPS BIIF-8  (PRN 03)",
        "meta_object_id": "2014-068A",
        "meta_epoch": "2025-12-03T11:38:05.638272",
        "meta_mean_motion": 2.00564094,
        "meta_eccentricity": 0.00608191,
        "meta_inclination": 56.851,
        "meta_ra_of_asc_node": 38.5042,
        "meta_arg_of_pericenter": 69.3788,
        "meta_mean_anomaly": 291.3251,
        "meta_ephemeris_type": 0,
        "meta_classification_type": "U",
        "meta_norad_cat_id": 40294,
        "meta_element_set_no": 999,
        "meta_rev_at_epoch": 8128,
        "meta_bstar": 0,
        "meta_mean_motion_dot": -6.5e-07,
        "meta_mean_motion_ddot": 0,
        "tle_line1": "1 40294U 14068A   25337.48478748 -.00000065  00000+0  00000+0 0  9998",
        "tle_line2": "2 40294  56.8510  38.5042 0060819  69.3788 291.3251  2.00564094 81285"
      },
      "geometry": {
        "type": "Point",
        "coordinates": [
          -113.94726726902192,
          -35.412859334473225
        ]
      }
    },
    {
      "type": "Feature",
      "properties": {
        "norad_id": 40534,
        "name": "GPS BIIF-9  (PRN 26)",
        "group": "gps-ops",
        "lat": 37.22648489283921,
        "lon": -2.4967074278539325,
        "alt_km": 20187.278800895303,
        "timestamp": "2025-12-06T18:50:10.427174+00:00",
        "meta_object_name": "GPS BIIF-9  (PRN 26)",
        "meta_object_id": "2015-013A",
        "meta_epoch": "2025-12-05T02:39:15.664608",
        "meta_mean_motion": 2.00562945,
        "meta_eccentricity": 0.01067231,
        "meta_inclination": 53.199,
        "meta_ra_of_asc_node": 212.2063,
        "meta_arg_of_pericenter": 38.2939,
        "meta_mean_anomaly": 322.5584,
        "meta_ephemeris_type": 0,
        "meta_classification_type": "U",
        "meta_norad_cat_id": 40534,
        "meta_element_set_no": 999,
        "meta_rev_at_epoch": 7793,
        "meta_bstar": 0,
        "meta_mean_motion_dot": 6.7e-07,
        "meta_mean_motion_ddot": 0,
        "tle_line1": "1 40534U 15013A   25339.11059797  .00000067  00000+0  00000+0 0  9998",
        "tle_line2": "2 40534  53.1990 212.2063 0106723  38.2939 322.5584  2.00562945 77932"
      },
      "geometry": {
        "type": "Point",
        "coordinates": [
          -2.4967074278539325,
          37.22648489283921
        ]
      }
    }
  ]
}